CCSDS_OMM_VERS = 2.0
CREATION_DATE  = 
ORIGINATOR     = 

OBJECT_NAME    = SL-16 R/B
OBJECT_ID      = 1998-043G
CENTER_NAME    = EARTH
REF_FRAME      = TEME
TIME_SYSTEM    = UTC
MEAN_ELEMENT_THEORY = SGP/SGP4

EPOCH          = 2026-02-10T10:30:41.954112
MEAN_MOTION    = 14.26043197
ECCENTRICITY   = .0010947
INCLINATION    = 98.8207
RA_OF_ASC_NODE = 354.6163
ARG_OF_PERICENTER = 93.1431
MEAN_ANOMALY   = 267.1001

EPHEMERIS_TYPE = 0
CLASSIFICATION_TYPE = U
NORAD_CAT_ID   = 25400
ELEMENT_SET_NO = 999
REV_AT_EPOCH   = 43510
BSTAR          = .5626E-4
MEAN_MOTION_DOT = .89E-6
MEAN_MOTION_DDOT = 0

CCSDS_OMM_VERS = 2.0
CREATION_DATE  = 
ORIGINATOR     = 

OBJECT_NAME    = SL-16 R/B
OBJECT_ID      = 1998-045B
CENTER_NAME    = EARTH
REF_FRAME      = TEME
TIME_SYSTEM    = UTC
MEAN_ELEMENT_THEORY = SGP/SGP4

EPOCH          = 2026-02-09T22:56:06.348192
MEAN_MOTION    = 14.16185342
ECCENTRICITY   = .0005424
INCLINATION    = 71.0082
RA_OF_ASC_NODE = 239.8975
ARG_OF_PERICENTER = 59.6725
MEAN_ANOMALY   = 300.4934

EPHEMERIS_TYPE = 0
CLASSIFICATION_TYPE = U
NORAD_CAT_ID   = 25407
ELEMENT_SET_NO = 999
REV_AT_EPOCH   = 42317
BSTAR          = .61559E-4
MEAN_MOTION_DOT = .74E-6
MEAN_MOTION_DDOT = 0

CCSDS_OMM_VERS = 2.0
CREATION_DATE  = 
ORIGINATOR     = 

OBJECT_NAME    = ISS (ZARYA)
OBJECT_ID      = 1998-067A
CENTER_NAME    = EARTH
REF_FRAME      = TEME
TIME_SYSTEM    = UTC
MEAN_ELEMENT_THEORY = SGP/SGP4

EPOCH          = 2026-02-10T11:18:58.375872
MEAN_MOTION    = 15.48523328
ECCENTRICITY   = .00111
INCLINATION    = 51.6313
RA_OF_ASC_NODE = 206.9057
ARG_OF_PERICENTER = 84.3131
MEAN_ANOMALY   = 275.9122

EPHEMERIS_TYPE = 0
CLASSIFICATION_TYPE = U
NORAD_CAT_ID   = 25544
ELEMENT_SET_NO = 999
REV_AT_EPOCH   = 55211
BSTAR          = .18993E-3
MEAN_MOTION_DOT = .9872E-4
MEAN_MOTION_DDOT = 0

CCSDS_OMM_VERS = 2.0
CREATION_DATE  = 
ORIGINATOR     = 

OBJECT_NAME    = CZ-4B R/B
OBJECT_ID      = 1999-025C
CENTER_NAME    = EARTH
REF_FRAME      = TEME
TIME_SYSTEM    = UTC
MEAN_ELEMENT_THEORY = SGP/SGP4

EPOCH          = 2026-02-10T01:47:47.725152
MEAN_MOTION    = 14.18259683
ECCENTRICITY   = .00380499
INCLINATION    = 98.6682
RA_OF_ASC_NODE = 86.0033
ARG_OF_PERICENTER = 65.2155
MEAN_ANOMALY   = 324.7722

EPHEMERIS_TYPE = 0
CLASSIFICATION_TYPE = U
NORAD_CAT_ID   = 25732
ELEMENT_SET_NO = 999
REV_AT_EPOCH   = 38425
BSTAR          = .44571583E-4
MEAN_MOTION_DOT = .5E-6
MEAN_MOTION_DDOT = 0

CCSDS_OMM_VERS = 2.0
CREATION_DATE  = 
ORIGINATOR     = 

OBJECT_NAME    = OKEAN-O
OBJECT_ID      = 1999-039A
CENTER_NAME    = EARTH
REF_FRAME      = TEME
TIME_SYSTEM    = UTC
MEAN_ELEMENT_THEORY = SGP/SGP4

EPOCH          = 2026-02-10T03:23:04.899552
MEAN_MOTION    = 14.80289937
ECCENTRICITY   = .00018613
INCLINATION    = 97.9505
RA_OF_ASC_NODE = 101.3042
ARG_OF_PERICENTER = 85.0338
MEAN_ANOMALY   = 275.1086

EPHEMERIS_TYPE = 0
CLASSIFICATION_TYPE = U
NORAD_CAT_ID   = 25860
ELEMENT_SET_NO = 999
REV_AT_EPOCH   = 43031
BSTAR          = .10926989E-3
MEAN_MOTION_DOT = .78E-5
MEAN_MOTION_DDOT = 0

CCSDS_OMM_VERS = 2.0
CREATION_DATE  = 
ORIGINATOR     = 

OBJECT_NAME    = SL-16 R/B
OBJECT_ID      = 1999-039B
CENTER_NAME    = EARTH
REF_FRAME      = TEME
TIME_SYSTEM    = UTC
MEAN_ELEMENT_THEORY = SGP/SGP4

EPOCH          = 2026-02-10T03:31:34.932576
MEAN_MOTION    = 14.81692021
ECCENTRICITY   = .00145167
INCLINATION    = 98.0027
RA_OF_ASC_NODE = 100.2759
ARG_OF_PERICENTER = 352.1940
MEAN_ANOMALY   = 7.9044

EPHEMERIS_TYPE = 0
CLASSIFICATION_TYPE = U
NORAD_CAT_ID   = 25861
ELEMENT_SET_NO = 999
REV_AT_EPOCH   = 43278
BSTAR          = .88471381E-4
MEAN_MOTION_DOT = .643E-5
MEAN_MOTION_DDOT = 0

CCSDS_OMM_VERS = 2.0
CREATION_DATE  = 
ORIGINATOR     = 

OBJECT_NAME    = DELTA 2 R/B
OBJECT_ID      = 1999-041E
CENTER_NAME    = EARTH
REF_FRAME      = TEME
TIME_SYSTEM    = UTC
MEAN_ELEMENT_THEORY = SGP/SGP4

EPOCH          = 2026-02-10T07:52:02.875584
MEAN_MOTION    = 14.11727680
ECCENTRICITY   = .050228
INCLINATION    = 51.7655
RA_OF_ASC_NODE = 50.5470
ARG_OF_PERICENTER = 267.5979
MEAN_ANOMALY   = 86.7383

EPHEMERIS_TYPE = 0
CLASSIFICATION_TYPE = U
NORAD_CAT_ID   = 25876
ELEMENT_SET_NO = 999
REV_AT_EPOCH   = 35916
BSTAR          = .38633E-3
MEAN_MOTION_DOT = .2169E-4
MEAN_MOTION_DDOT = 0

CCSDS_OMM_VERS = 2.0
CREATION_DATE  = 
ORIGINATOR     = 

OBJECT_NAME    = HELIOS 1B
OBJECT_ID      = 1999-064A
CENTER_NAME    = EARTH
REF_FRAME      = TEME
TIME_SYSTEM    = UTC
MEAN_ELEMENT_THEORY = SGP/SGP4

EPOCH          = 2026-02-10T04:53:32.543232
MEAN_MOTION    = 14.87583285
ECCENTRICITY   = .0002109
INCLINATION    = 98.1721
RA_OF_ASC_NODE = 302.6360
ARG_OF_PERICENTER = 114.1883
MEAN_ANOMALY   = 245.9553

EPHEMERIS_TYPE = 0
CLASSIFICATION_TYPE = U
NORAD_CAT_ID   = 25977
ELEMENT_SET_NO = 999
REV_AT_EPOCH   = 68117
BSTAR          = .24429E-3
MEAN_MOTION_DOT = .2161E-4
MEAN_MOTION_DDOT = 0

CCSDS_OMM_VERS = 2.0
CREATION_DATE  = 
ORIGINATOR     = 

OBJECT_NAME    = TERRA
OBJECT_ID      = 1999-068A
CENTER_NAME    = EARTH
REF_FRAME      = TEME
TIME_SYSTEM    = UTC
MEAN_ELEMENT_THEORY = SGP/SGP4

EPOCH          = 2026-02-10T10:57:28.157760
MEAN_MOTION    = 14.60984662
ECCENTRICITY   = .0000944
INCLINATION    = 97.9653
RA_OF_ASC_NODE = 95.9235
ARG_OF_PERICENTER = 259.3702
MEAN_ANOMALY   = 157.8480

EPHEMERIS_TYPE = 0
CLASSIFICATION_TYPE = U
NORAD_CAT_ID   = 25994
ELEMENT_SET_NO = 999
REV_AT_EPOCH   = 39110
BSTAR          = .10945E-3
MEAN_MOTION_DOT = .492E-5
MEAN_MOTION_DDOT = 0

CCSDS_OMM_VERS = 2.0
CREATION_DATE  = 
ORIGINATOR     = 

OBJECT_NAME    = SL-16 R/B
OBJECT_ID      = 2000-006B
CENTER_NAME    = EARTH
REF_FRAME      = TEME
TIME_SYSTEM    = UTC
MEAN_ELEMENT_THEORY = SGP/SGP4

EPOCH          = 2026-02-10T11:00:03.112704
MEAN_MOTION    = 14.15820405
ECCENTRICITY   = .0018323
INCLINATION    = 71.0031
RA_OF_ASC_NODE = 155.0941
ARG_OF_PERICENTER = 228.6479
MEAN_ANOMALY   = 131.3069

EPHEMERIS_TYPE = 0
CLASSIFICATION_TYPE = U
NORAD_CAT_ID   = 26070
ELEMENT_SET_NO = 999
REV_AT_EPOCH   = 34470
BSTAR          = -.60231E-4
MEAN_MOTION_DOT = -.166E-5
MEAN_MOTION_DDOT = 0

CCSDS_OMM_VERS = 2.0
CREATION_DATE  = 
ORIGINATOR     = 

OBJECT_NAME    = TITAN 4B R/B
OBJECT_ID      = 2000-047B
CENTER_NAME    = EARTH
REF_FRAME      = TEME
TIME_SYSTEM    = UTC
MEAN_ELEMENT_THEORY = SGP/SGP4

EPOCH          = 2026-02-10T11:05:32.073792
MEAN_MOTION    = 15.09332696
ECCENTRICITY   = .0037045
INCLINATION    = 67.9891
RA_OF_ASC_NODE = 117.0603
ARG_OF_PERICENTER = 68.8093
MEAN_ANOMALY   = 291.7008

EPHEMERIS_TYPE = 0
CLASSIFICATION_TYPE = U
NORAD_CAT_ID   = 26474
ELEMENT_SET_NO = 999
REV_AT_EPOCH   = 38880
BSTAR          = .21008E-3
MEAN_MOTION_DOT = .3277E-4
MEAN_MOTION_DDOT = 0

CCSDS_OMM_VERS = 2.0
CREATION_DATE  = 
ORIGINATOR     = 

OBJECT_NAME    = ENVISAT
OBJECT_ID      = 2002-009A
CENTER_NAME    = EARTH
REF_FRAME      = TEME
TIME_SYSTEM    = UTC
MEAN_ELEMENT_THEORY = SGP/SGP4

EPOCH          = 2026-02-10T12:06:31.644288
MEAN_MOTION    = 14.39026608
ECCENTRICITY   = .0001327
INCLINATION    = 98.3681
RA_OF_ASC_NODE = 355.7573
ARG_OF_PERICENTER = 89.6348
MEAN_ANOMALY   = 22.1463

EPHEMERIS_TYPE = 0
CLASSIFICATION_TYPE = U
NORAD_CAT_ID   = 27386
ELEMENT_SET_NO = 999
REV_AT_EPOCH   = 25526
BSTAR          = .62908E-4
MEAN_MOTION_DOT = .151E-5
MEAN_MOTION_DDOT = 0

