SL-16 R/B               
1 25400U 98043G   26041.43798558  .00000089  00000+0  56260-4 0  9996
2 25400  98.8207 354.6163 0010947  93.1431 267.1001 14.26043197435104
SL-16 R/B               
1 25407U 98045B   26040.95562903  .00000074  00000+0  61559-4 0  9995
2 25407  71.0082 239.8975 0005424  59.6725 300.4934 14.16185342423175
ISS (ZARYA)             
1 25544U 98067A   26041.47150898  .00009872  00000+0  18993-3 0  9993
2 25544  51.6313 206.9057 0011100  84.3131 275.9122 15.48523328552116
CZ-4B R/B               
1 25732U 99025C   26041.07485793  .00000050  00000+0  44572-4 0  9990
2 25732  98.6682  86.0033 0038049  65.2155 324.7722 14.18259683384254
OKEAN-O                 
1 25860U 99039A   26041.14102893  .00000780  00000+0  10927-3 0  9998
2 25860  97.9505 101.3042 0001861  85.0338 275.1086 14.80289937430313
SL-16 R/B               
1 25861U 99039B   26041.14693209  .00000643  00000+0  88471-4 0  9993
2 25861  98.0027 100.2759 0014516 352.1940   7.9044 14.81692021432787
DELTA 2 R/B             
1 25876U 99041E   26041.32781106  .00002169  00000+0  38633-3 0  9995
2 25876  51.7655  50.5470 0502280 267.5979  86.7383 14.11727680359168
HELIOS 1B               
1 25977U 99064A   26041.20384888  .00002161  00000+0  24429-3 0  9995
2 25977  98.1721 302.6360 0002109 114.1883 245.9553 14.87583285681175
TERRA                   
1 25994U 99068A   26041.45657590  .00000492  00000+0  10945-3 0  9991
2 25994  97.9653  95.9235 0000944 259.3702 157.8480 14.60984662391101
SL-16 R/B               
1 26070U 00006B   26041.45836936 -.00000166  00000+0 -60231-4 0  9998
2 26070  71.0031 155.0941 0018323 228.6479 131.3069 14.15820405344700
TITAN 4B R/B            
1 26474U 00047B   26041.46217678  .00003277  00000+0  21008-3 0  9990
2 26474  67.9891 117.0603 0037045  68.8093 291.7008 15.09332696388804
ENVISAT                 
1 27386U 02009A   26041.50453292  .00000151  00000+0  62908-4 0  9995
2 27386  98.3681 355.7573 0001327  89.6348  22.1463 14.39026608255266
